#cP2005  4 12 00 00 00.00000000    2880 *POS* WGS84 FIT DLR*
## 1318 172800.00000000    30.00000000 53472 0.0000000000000
+    1   L06  0  0  0  0  0  0  0  0  0  0  0  0  0  0  0  0
+          0  0  0  0  0  0  0  0  0  0  0  0  0  0  0  0  0
+          0  0  0  0  0  0  0  0  0  0  0  0  0  0  0  0  0
+          0  0  0  0  0  0  0  0  0  0  0  0  0  0  0  0  0
+          0  0  0  0  0  0  0  0  0  0  0  0  0  0  0  0  0
++         0  0  0  0  0  0  0  0  0  0  0  0  0  0  0  0  0
++         0  0  0  0  0  0  0  0  0  0  0  0  0  0  0  0  0
++         0  0  0  0  0  0  0  0  0  0  0  0  0  0  0  0  0
++         0  0  0  0  0  0  0  0  0  0  0  0  0  0  0  0  0
++         0  0  0  0  0  0  0  0  0  0  0  0  0  0  0  0  0
%c cc cc ccc ccc cccc cccc cccc cccc ccccc ccccc ccccc ccccc
%c cc cc ccc ccc cccc cccc cccc cccc ccccc ccccc ccccc ccccc
%f   .0000000   .000000000   .00000000000   .000000000000000
%f   .0000000   .000000000   .00000000000   .000000000000000
%i    0    0    0    0      0      0      0      0         0
%i    0    0    0    0      0      0      0      0         0
/* NOTE: CCCCCCCCCCCCCCCCCCCCCCCCCCCCCCCCCCCCCCCCCCCCCCCCCCC
/* CCCCCCCCCCCCCCCCCCCCCCCCCCCCCCCCCCCCCCCCCCCCCCCCCCCCCCCCC
/* CCCCCCCCCCCCCCCCCCCCCCCCCCCCCCCCCCCCCCCCCCCCCCCCCCCCCCCCC
/* CCCCCCCCCCCCCCCCCCCCCCCCCCCCCCCCCCCCCCCCCCCCCCCCCCCCCCCCC
*  2005 04 12 18 36 00.00000000
PL06   -513.215580  -6415.105591  -2015.457982 999999.000000
*  2005 04 12 18 36 30.00000000
PL06   -509.759242  -6342.789068  -2234.092390 999999.000000
*  2005 04 12 18 37 00.00000000
PL06   -505.376257  -6263.097652  -2450.104877 999999.000000
*  2005 04 12 18 37 30.00000000
PL06   -500.039829  -6176.130188  -2663.242652 999999.000000
*  2005 04 12 18 38 00.00000000
PL06   -493.724727  -6081.994124  -2873.256445 999999.000000
*  2005 04 12 18 38 30.00000000
PL06   -486.407350  -5980.805366  -3079.900804 999999.000000
*  2005 04 12 18 39 00.00000000
PL06   -478.065787  -5872.688118  -3282.934386 999999.000000
*  2005 04 12 18 39 30.00000000
PL06   -468.679880  -5757.774714  -3482.120243 999999.000000
*  2005 04 12 18 40 00.00000000
PL06   -458.231279  -5636.205435  -3677.226092 999999.000000
*  2005 04 12 18 40 30.00000000
PL06   -446.703500  -5508.128316  -3868.024581 999999.000000
*  2005 04 12 18 41 00.00000000
PL06   -434.081968  -5373.698956  -4054.293541 999999.000000
*  2005 04 12 18 41 30.00000000
PL06   -420.354070  -5233.080318  -4235.816236 999999.000000
*  2005 04 12 18 42 00.00000000
PL06   -405.509197  -5086.442519  -4412.381614 999999.000000
*  2005 04 12 18 42 30.00000000
PL06   -389.538789  -4933.962617  -4583.784540 999999.000000
*  2005 04 12 18 43 00.00000000
PL06   -372.436371  -4775.824378  -4749.826034 999999.000000
*  2005 04 12 18 43 30.00000000
PL06   -354.197591  -4612.218045  -4910.313481 999999.000000
*  2005 04 12 18 44 00.00000000
PL06   -334.820248  -4443.340098  -5065.060851 999999.000000
*  2005 04 12 18 44 30.00000000
PL06   -314.304323  -4269.393010  -5213.888905 999999.000000
*  2005 04 12 18 45 00.00000000
PL06   -292.652001  -4090.584990  -5356.625385 999999.000000
*  2005 04 12 18 45 30.00000000
PL06   -269.867692  -3907.129726  -5493.105204 999999.000000
*  2005 04 12 18 46 00.00000000
PL06   -245.958047  -3719.246125  -5623.170618 999999.000000
*  2005 04 12 18 46 30.00000000
PL06   -220.931971  -3527.158042  -5746.671400 999999.000000
*  2005 04 12 18 47 00.00000000
PL06   -194.800636  -3331.094018  -5863.464995 999999.000000
*  2005 04 12 18 47 30.00000000
PL06   -167.577486  -3131.286994  -5973.416678 999999.000000
*  2005 04 12 18 48 00.00000000
PL06   -139.278237  -2927.974035  -6076.399692 999999.000000
*  2005 04 12 18 48 30.00000000
PL06   -109.920886  -2721.396044  -6172.295375 999999.000000
*  2005 04 12 18 49 00.00000000
PL06    -79.525695  -2511.797483  -6260.993288 999999.000000
*  2005 04 12 18 49 30.00000000
PL06    -48.115196  -2299.426074  -6342.391324 999999.000000
*  2005 04 12 18 50 00.00000000
PL06    -15.714174  -2084.532520  -6416.395805 999999.000000
*  2005 04 12 18 50 30.00000000
PL06     17.650342  -1867.370217  -6482.921583 999999.000000
*  2005 04 12 18 51 00.00000000
PL06     51.949105  -1648.194968  -6541.892140 999999.000000
*  2005 04 12 18 51 30.00000000
PL06     87.150670  -1427.264673  -6593.239671 999999.000000
*  2005 04 12 18 52 00.00000000
PL06    123.221416  -1204.839023  -6636.905151 999999.000000
*  2005 04 12 18 52 30.00000000
PL06    160.125587   -981.179205  -6672.838390 999999.000000
*  2005 04 12 18 53 00.00000000
PL06    197.825324   -756.547591  -6700.998083 999999.000000
*  2005 04 12 18 53 30.00000000
PL06    236.280709   -531.207450  -6721.351838 999999.000000
*  2005 04 12 18 54 00.00000000
PL06    275.449799   -305.422655  -6733.876204 999999.000000
*  2005 04 12 18 54 30.00000000
PL06    315.288674    -79.457387  -6738.556708 999999.000000
*  2005 04 12 18 55 00.00000000
PL06    355.751474    146.424179  -6735.387870 999999.000000
*  2005 04 12 18 55 30.00000000
PL06    396.790452    371.958169  -6724.373187 999999.000000
*  2005 04 12 18 56 00.00000000
PL06    438.356021    596.881292  -6705.525144 999999.000000
*  2005 04 12 18 56 30.00000000
PL06    480.396817    820.931136  -6678.865206 999999.000000
*  2005 04 12 18 57 00.00000000
PL06    522.859758   1043.846465  -6644.423811 999999.000000
*  2005 04 12 18 57 30.00000000
PL06    565.690116   1265.367514  -6602.240351 999999.000000
*  2005 04 12 18 58 00.00000000
PL06    608.831594   1485.236310  -6552.363136 999999.000000
*  2005 04 12 18 58 30.00000000
PL06    652.226393   1703.196969  -6494.849332 999999.000000
*  2005 04 12 18 59 00.00000000
PL06    695.815281   1918.995984  -6429.764885 999999.000000
*  2005 04 12 18 59 30.00000000
PL06    739.537666   2132.382496  -6357.184453 999999.000000
*  2005 04 12 19 00 00.00000000
PL06    783.331685   2343.108576  -6277.191346 999999.000000
*  2005 04 12 19 00 30.00000000
PL06    827.134276   2550.929519  -6189.877451 999999.000000
*  2005 04 12 19 01 00.00000000
PL06    870.881272   2755.604140  -6095.343135 999999.000000
*  2005 04 12 19 01 30.00000000
PL06    914.507491   2956.895053  -5993.697129 999999.000000
*  2005 04 12 19 02 00.00000000
PL06    957.946822   3154.568932  -5885.056414 999999.000000
*  2005 04 12 19 02 30.00000000
PL06   1001.132325   3348.396777  -5769.546105 999999.000000
*  2005 04 12 19 03 00.00000000
PL06   1043.996321   3538.154180  -5647.299324 999999.000000
*  2005 04 12 19 03 30.00000000
PL06   1086.470500   3723.621592  -5518.457063 999999.000000
*  2005 04 12 19 04 00.00000000
PL06   1128.486017   3904.584581  -5383.168037 999999.000000
*  2005 04 12 19 04 30.00000000
PL06   1169.973593   4080.834081  -5241.588527 999999.000000
*  2005 04 12 19 05 00.00000000
PL06   1210.863623   4252.166647  -5093.882225 999999.000000
*  2005 04 12 19 05 30.00000000
PL06   1251.086287   4418.384709  -4940.220058 999999.000000
*  2005 04 12 19 06 00.00000000
PL06   1290.571651   4579.296805  -4780.779990 999999.000000
*  2005 04 12 19 06 30.00000000
PL06   1329.249778   4734.717814  -4615.746823 999999.000000
*  2005 04 12 19 07 00.00000000
PL06   1367.050840   4884.469177  -4445.311999 999999.000000
*  2005 04 12 19 07 30.00000000
PL06   1403.905238   5028.379103  -4269.673382 999999.000000
*  2005 04 12 19 08 00.00000000
PL06   1439.743704   5166.282784  -4089.035045 999999.000000
*  2005 04 12 19 08 30.00000000
PL06   1474.497423   5298.022595  -3903.607040 999999.000000
*  2005 04 12 19 09 00.00000000
PL06   1508.098145   5423.448281  -3713.605168 999999.000000
*  2005 04 12 19 09 30.00000000
PL06   1540.478298   5542.417153  -3519.250735 999999.000000
*  2005 04 12 19 10 00.00000000
PL06   1571.571107   5654.794262  -3320.770299 999999.000000
*  2005 04 12 19 10 30.00000000
PL06   1601.310708   5760.452568  -3118.395416 999999.000000
*  2005 04 12 19 11 00.00000000
PL06   1629.632265   5859.273104  -2912.362370 999999.000000
*  2005 04 12 19 11 30.00000000
PL06   1656.472081   5951.145122  -2702.911901 999999.000000
*  2005 04 12 19 12 00.00000000
PL06   1681.767715   6035.966239  -2490.288919 999999.000000
*  2005 04 12 19 12 30.00000000
PL06   1705.458091   6113.642558  -2274.742222 999999.000000
*  2005 04 12 19 13 00.00000000
PL06   1727.483616   6184.088795  -2056.524200 999999.000000
*  2005 04 12 19 13 30.00000000
PL06   1747.786287   6247.228381  -1835.890533 999999.000000
*  2005 04 12 19 14 00.00000000
PL06   1766.309805   6302.993556  -1613.099890 999999.000000
*  2005 04 12 19 14 30.00000000
PL06   1782.999684   6351.325458  -1388.413613 999999.000000
*  2005 04 12 19 15 00.00000000
PL06   1797.803354   6392.174188  -1162.095408 999999.000000
*  2005 04 12 19 15 30.00000000
PL06   1810.670268   6425.498873   -934.411029 999999.000000
*  2005 04 12 19 16 00.00000000
PL06   1821.551996   6451.267716   -705.627953 999999.000000
*  2005 04 12 19 16 30.00000000
PL06   1830.402332   6469.458031   -476.015061 999999.000000
*  2005 04 12 19 17 00.00000000
PL06   1837.177382   6480.056268   -245.842313 999999.000000
*  2005 04 12 19 17 30.00000000
PL06   1841.835659   6483.058021    -15.380414 999999.000000
*  2005 04 12 19 18 00.00000000
PL06   1844.338179   6478.468032    215.099501 999999.000000
*  2005 04 12 19 18 30.00000000
PL06   1844.648543   6466.300178    445.326206 999999.000000
*  2005 04 12 19 19 00.00000000
PL06   1842.733024   6446.577451    675.028701 999999.000000
*  2005 04 12 19 19 30.00000000
PL06   1838.560644   6419.331923    903.936555 999999.000000
*  2005 04 12 19 20 00.00000000
PL06   1832.103253   6384.604701   1131.780228 999999.000000
*  2005 04 12 19 20 30.00000000
PL06   1823.335601   6342.445856   1358.291405 999999.000000
*  2005 04 12 19 21 00.00000000
PL06   1812.235409   6292.914356   1583.203314 999999.000000
*  2005 04 12 19 21 30.00000000
PL06   1798.783437   6236.077985   1806.251051 999999.000000
*  2005 04 12 19 22 00.00000000
PL06   1782.963540   6172.013246   2027.171909 999999.000000
EOF
